COSMOS 2251 DEB         
1 37341U 93036BLH 17346.29491052  .00010615  00000-0  57614-3 0  9991
2 37341  73.9981 200.3079 0016016  22.8699  99.5536 15.14506944439358
